STARLINK-36246          
1 67939U 26037H   26069.25002315  .00084999  00000+0  40322-3 0  9995
2 67939  42.9986 195.0681 0001841 268.3405 348.3094 15.81963417  3195
STARLINK-36907          
1 67940U 26037J   26069.25002315  .00029877  00000+0  14414-3 0  9994
2 67940  42.9984 195.0343 0001417 270.6395 358.8311 15.81983633  3283
STARLINK-36927          
1 67941U 26037K   26069.25002315  .00079103  00000+0  37580-3 0  9991
2 67941  42.9984 195.0132 0001583 273.1536   4.8689 15.81957169  3280
STARLINK-36914          
1 67942U 26037L   26069.25002315  .00120879  00000+0  57066-3 0  9990
2 67942  42.9986 195.0568 0001882 252.6449   8.2867 15.81938396  3280
STARLINK-36851          
1 67943U 26037M   26069.25002315  .00115820  00000+0  54718-3 0  9992
2 67943  42.9985 195.0464 0001583 254.1090  11.1012 15.81939522  3289
STARLINK-36892          
1 67944U 26037N   26069.25002315  .00058790  00000+0  28050-3 0  9995
2 67944  42.9985 195.0249 0001864 281.6272 352.1318 15.81964516  3288
STARLINK-36908          
1 67945U 26037P   26069.25002315  .00026420  00000+0  12775-3 0  9998
2 67945  42.9984 195.0027 0001643 261.3544  20.9366 15.81993732  3289
STARLINK-36909          
1 67946U 26037Q   26069.25002315  .00034100  00000+0  16407-3 0  9999
2 67946  42.9984 194.9921 0001625 272.8770  13.6892 15.81984741  3282
STARLINK-36920          
1 67947U 26037R   26069.25002315 -.00020566  00000+0 -95406-4 0  9990
2 67947  42.9984 194.9809 0001534 272.6896  18.1453 15.82007060  3288
STARLINK-36873          
1 67948U 26037S   26069.25002315 -.00083028  00000+0 -39410-3 0  9995
2 67948  42.9984 194.9702 0001751 264.0598  31.0636 15.82093626  3286
STARLINK-36863          
1 67949U 26037T   26069.25002315  .00200442  00000+0  93912-3 0  9992
2 67949  42.9984 194.9593 0001811 262.6047  36.8543 15.81865389  3287
STARLINK-36887          
1 67950U 26037U   26069.25002315 -.00007670  00000+0 -33961-4 0  9993
2 67950  42.9986 194.9486 0001328 260.2651  43.3884 15.81996844  3282
STARLINK-36897          
1 67951U 26037V   26069.25002315  .00013093  00000+0  64709-4 0  9992
2 67951  42.9988 194.9379 0001754 271.2560  36.6812 15.81984920  3288
STARLINK-36381          
1 67952U 26037W   26069.25002315 -.00000328  00000+0  97482-6 0  9997
2 67952  42.9986 194.9165 0001629 260.5112  55.9539 15.82007526  3284
STARLINK-36824          
1 67953U 26037X   26069.25002315  .00037382  00000+0  17957-3 0  9993
2 67953  42.9986 194.9270 0001666 273.2795  38.9179 15.81981805  3282
STARLINK-36869          
1 67954U 26037Y   26069.25002315  .00054271  00000+0  25914-3 0  9992
2 67954  42.9987 194.9052 0001582 274.7428  46.0109 15.81975532  3281
