[{"OBJECT_NAME":"STARLINK-36246","OBJECT_ID":"2026-037H","EPOCH":"2026-03-10T06:00:02.000160","MEAN_MOTION":15.81963417,"ECCENTRICITY":0.00018417,"INCLINATION":42.9986,"RA_OF_ASC_NODE":195.0681,"ARG_OF_PERICENTER":268.3405,"MEAN_ANOMALY":348.3094,"EPHEMERIS_TYPE":0,"CLASSIFICATION_TYPE":"U","NORAD_CAT_ID":67939,"ELEMENT_SET_NO":999,"REV_AT_EPOCH":319,"BSTAR":0.00040321752,"MEAN_MOTION_DOT":0.00084999,"MEAN_MOTION_DDOT":0},{"OBJECT_NAME":"STARLINK-36907","OBJECT_ID":"2026-037J","EPOCH":"2026-03-10T06:00:02.000160","MEAN_MOTION":15.81983633,"ECCENTRICITY":0.00014171,"INCLINATION":42.9984,"RA_OF_ASC_NODE":195.0343,"ARG_OF_PERICENTER":270.6395,"MEAN_ANOMALY":358.8311,"EPHEMERIS_TYPE":0,"CLASSIFICATION_TYPE":"U","NORAD_CAT_ID":67940,"ELEMENT_SET_NO":999,"REV_AT_EPOCH":328,"BSTAR":0.0001441423,"MEAN_MOTION_DOT":0.00029877,"MEAN_MOTION_DDOT":0},{"OBJECT_NAME":"STARLINK-36927","OBJECT_ID":"2026-037K","EPOCH":"2026-03-10T06:00:02.000160","MEAN_MOTION":15.81957169,"ECCENTRICITY":0.00015833,"INCLINATION":42.9984,"RA_OF_ASC_NODE":195.0132,"ARG_OF_PERICENTER":273.1536,"MEAN_ANOMALY":4.8689,"EPHEMERIS_TYPE":0,"CLASSIFICATION_TYPE":"U","NORAD_CAT_ID":67941,"ELEMENT_SET_NO":999,"REV_AT_EPOCH":328,"BSTAR":0.00037579626,"MEAN_MOTION_DOT":0.00079103,"MEAN_MOTION_DDOT":0},{"OBJECT_NAME":"STARLINK-36914","OBJECT_ID":"2026-037L","EPOCH":"2026-03-10T06:00:02.000160","MEAN_MOTION":15.81938396,"ECCENTRICITY":0.00018828,"INCLINATION":42.9986,"RA_OF_ASC_NODE":195.0568,"ARG_OF_PERICENTER":252.6449,"MEAN_ANOMALY":8.2867,"EPHEMERIS_TYPE":0,"CLASSIFICATION_TYPE":"U","NORAD_CAT_ID":67942,"ELEMENT_SET_NO":999,"REV_AT_EPOCH":328,"BSTAR":0.00057065677,"MEAN_MOTION_DOT":0.00120879,"MEAN_MOTION_DDOT":0},{"OBJECT_NAME":"STARLINK-36851","OBJECT_ID":"2026-037M","EPOCH":"2026-03-10T06:00:02.000160","MEAN_MOTION":15.81939522,"ECCENTRICITY":0.00015839,"INCLINATION":42.9985,"RA_OF_ASC_NODE":195.0464,"ARG_OF_PERICENTER":254.109,"MEAN_ANOMALY":11.1012,"EPHEMERIS_TYPE":0,"CLASSIFICATION_TYPE":"U","NORAD_CAT_ID":67943,"ELEMENT_SET_NO":999,"REV_AT_EPOCH":328,"BSTAR":0.00054718111,"MEAN_MOTION_DOT":0.0011582,"MEAN_MOTION_DDOT":0},{"OBJECT_NAME":"STARLINK-36892","OBJECT_ID":"2026-037N","EPOCH":"2026-03-10T06:00:02.000160","MEAN_MOTION":15.81964516,"ECCENTRICITY":0.00018647,"INCLINATION":42.9985,"RA_OF_ASC_NODE":195.0249,"ARG_OF_PERICENTER":281.6272,"MEAN_ANOMALY":352.1318,"EPHEMERIS_TYPE":0,"CLASSIFICATION_TYPE":"U","NORAD_CAT_ID":67944,"ELEMENT_SET_NO":999,"REV_AT_EPOCH":328,"BSTAR":0.00028049537,"MEAN_MOTION_DOT":0.0005879,"MEAN_MOTION_DDOT":0},{"OBJECT_NAME":"STARLINK-36908","OBJECT_ID":"2026-037P","EPOCH":"2026-03-10T06:00:02.000160","MEAN_MOTION":15.81993732,"ECCENTRICITY":0.00016434,"INCLINATION":42.9984,"RA_OF_ASC_NODE":195.0027,"ARG_OF_PERICENTER":261.3544,"MEAN_ANOMALY":20.9366,"EPHEMERIS_TYPE":0,"CLASSIFICATION_TYPE":"U","NORAD_CAT_ID":67945,"ELEMENT_SET_NO":999,"REV_AT_EPOCH":328,"BSTAR":0.0001277473,"MEAN_MOTION_DOT":0.0002642,"MEAN_MOTION_DDOT":0},{"OBJECT_NAME":"STARLINK-36909","OBJECT_ID":"2026-037Q","EPOCH":"2026-03-10T06:00:02.000160","MEAN_MOTION":15.81984741,"ECCENTRICITY":0.0001625,"INCLINATION":42.9984,"RA_OF_ASC_NODE":194.9921,"ARG_OF_PERICENTER":272.877,"MEAN_ANOMALY":13.6892,"EPHEMERIS_TYPE":0,"CLASSIFICATION_TYPE":"U","NORAD_CAT_ID":67946,"ELEMENT_SET_NO":999,"REV_AT_EPOCH":328,"BSTAR":0.00016407095,"MEAN_MOTION_DOT":0.000341,"MEAN_MOTION_DDOT":0},{"OBJECT_NAME":"STARLINK-36920","OBJECT_ID":"2026-037R","EPOCH":"2026-03-10T06:00:02.000160","MEAN_MOTION":15.8200706,"ECCENTRICITY":0.00015348,"INCLINATION":42.9984,"RA_OF_ASC_NODE":194.9809,"ARG_OF_PERICENTER":272.6896,"MEAN_ANOMALY":18.1453,"EPHEMERIS_TYPE":0,"CLASSIFICATION_TYPE":"U","NORAD_CAT_ID":67947,"ELEMENT_SET_NO":999,"REV_AT_EPOCH":328,"BSTAR":-9.5406404e-5,"MEAN_MOTION_DOT":-0.00020566,"MEAN_MOTION_DDOT":0},{"OBJECT_NAME":"STARLINK-36873","OBJECT_ID":"2026-037S","EPOCH":"2026-03-10T06:00:02.000160","MEAN_MOTION":15.82093626,"ECCENTRICITY":0.00017517,"INCLINATION":42.9984,"RA_OF_ASC_NODE":194.9702,"ARG_OF_PERICENTER":264.0598,"MEAN_ANOMALY":31.0636,"EPHEMERIS_TYPE":0,"CLASSIFICATION_TYPE":"U","NORAD_CAT_ID":67948,"ELEMENT_SET_NO":999,"REV_AT_EPOCH":328,"BSTAR":-0.00039409808,"MEAN_MOTION_DOT":-0.00083028,"MEAN_MOTION_DDOT":0},{"OBJECT_NAME":"STARLINK-36863","OBJECT_ID":"2026-037T","EPOCH":"2026-03-10T06:00:02.000160","MEAN_MOTION":15.81865389,"ECCENTRICITY":0.00018112,"INCLINATION":42.9984,"RA_OF_ASC_NODE":194.9593,"ARG_OF_PERICENTER":262.6047,"MEAN_ANOMALY":36.8543,"EPHEMERIS_TYPE":0,"CLASSIFICATION_TYPE":"U","NORAD_CAT_ID":67949,"ELEMENT_SET_NO":999,"REV_AT_EPOCH":328,"BSTAR":0.00093912422,"MEAN_MOTION_DOT":0.00200442,"MEAN_MOTION_DDOT":0},{"OBJECT_NAME":"STARLINK-36887","OBJECT_ID":"2026-037U","EPOCH":"2026-03-10T06:00:02.000160","MEAN_MOTION":15.81996844,"ECCENTRICITY":0.00013286,"INCLINATION":42.9986,"RA_OF_ASC_NODE":194.9486,"ARG_OF_PERICENTER":260.2651,"MEAN_ANOMALY":43.3884,"EPHEMERIS_TYPE":0,"CLASSIFICATION_TYPE":"U","NORAD_CAT_ID":67950,"ELEMENT_SET_NO":999,"REV_AT_EPOCH":328,"BSTAR":-3.3961085e-5,"MEAN_MOTION_DOT":-7.67e-5,"MEAN_MOTION_DDOT":0},{"OBJECT_NAME":"STARLINK-36897","OBJECT_ID":"2026-037V","EPOCH":"2026-03-10T06:00:02.000160","MEAN_MOTION":15.8198492,"ECCENTRICITY":0.00017546,"INCLINATION":42.9988,"RA_OF_ASC_NODE":194.9379,"ARG_OF_PERICENTER":271.256,"MEAN_ANOMALY":36.6812,"EPHEMERIS_TYPE":0,"CLASSIFICATION_TYPE":"U","NORAD_CAT_ID":67951,"ELEMENT_SET_NO":999,"REV_AT_EPOCH":328,"BSTAR":6.470881e-5,"MEAN_MOTION_DOT":0.00013093,"MEAN_MOTION_DDOT":0},{"OBJECT_NAME":"STARLINK-36381","OBJECT_ID":"2026-037W","EPOCH":"2026-03-10T06:00:02.000160","MEAN_MOTION":15.82007526,"ECCENTRICITY":0.00016296,"INCLINATION":42.9986,"RA_OF_ASC_NODE":194.9165,"ARG_OF_PERICENTER":260.5112,"MEAN_ANOMALY":55.9539,"EPHEMERIS_TYPE":0,"CLASSIFICATION_TYPE":"U","NORAD_CAT_ID":67952,"ELEMENT_SET_NO":999,"REV_AT_EPOCH":328,"BSTAR":9.74818e-7,"MEAN_MOTION_DOT":-3.28e-6,"MEAN_MOTION_DDOT":0},{"OBJECT_NAME":"STARLINK-36824","OBJECT_ID":"2026-037X","EPOCH":"2026-03-10T06:00:02.000160","MEAN_MOTION":15.81981805,"ECCENTRICITY":0.00016667,"INCLINATION":42.9986,"RA_OF_ASC_NODE":194.927,"ARG_OF_PERICENTER":273.2795,"MEAN_ANOMALY":38.9179,"EPHEMERIS_TYPE":0,"CLASSIFICATION_TYPE":"U","NORAD_CAT_ID":67953,"ELEMENT_SET_NO":999,"REV_AT_EPOCH":328,"BSTAR":0.00017957356,"MEAN_MOTION_DOT":0.00037382,"MEAN_MOTION_DDOT":0},{"OBJECT_NAME":"STARLINK-36869","OBJECT_ID":"2026-037Y","EPOCH":"2026-03-10T06:00:02.000160","MEAN_MOTION":15.81975532,"ECCENTRICITY":0.00015825,"INCLINATION":42.9987,"RA_OF_ASC_NODE":194.9052,"ARG_OF_PERICENTER":274.7428,"MEAN_ANOMALY":46.0109,"EPHEMERIS_TYPE":0,"CLASSIFICATION_TYPE":"U","NORAD_CAT_ID":67954,"ELEMENT_SET_NO":999,"REV_AT_EPOCH":328,"BSTAR":0.00025913602,"MEAN_MOTION_DOT":0.00054271,"MEAN_MOTION_DDOT":0}]
